ATLAS CENTAUR R/B       
1 06155U 72065B   25361.32427176  .00001407  00000+0  19587-3 0  9990
2 06155  35.0024   9.7634 0033305 122.1024 238.2916 14.77447064830554
SL-8 R/B                
1 08459U 75112B   25361.50811323  .00000316  00000+0  11282-3 0  9998
2 08459  74.0597 151.6932 0016684 261.5640  98.3623 14.38155117621495
SL-3 R/B                
1 10114U 77057B   25361.47607954  .00013917  00000+0  31414-3 0  9998
2 10114  97.5693 165.3820 0007477 174.8043 185.3283 15.43307186657180
SEASAT 1                
1 10967U 78064A   25361.48607157  .00000463  00000+0  16800-3 0  9993
2 10967 108.0141 333.9731 0001276 257.3974 102.7029 14.46077363496070
SL-14 R/B               
1 11267U 79011B   25361.47761646  .00000781  00000+0  74897-4 0  9997
2 11267  82.5237 165.0663 0014808 301.7828  58.1948 14.91788438518016
SL-8 R/B                
1 11574U 79089B   25361.33301742  .00000272  00000+0  90324-4 0  9993
2 11574  74.0672 224.9701 0014787  53.3553 306.8961 14.42292700425670
SL-14 R/B               
1 11672U 80005B   25361.51039272  .00000698  00000+0  68224-4 0  9994
2 11672  82.5138  15.6893 0016967  48.3173 311.9494 14.90809106465737
SL-8 R/B                
1 12139U 81003B   25361.47589836  .00021423  00000+0  56658-3 0  9999
2 12139  82.9356 356.6435 0277290  69.6710 293.4080 15.07500536303788
SL-3 R/B                
1 12465U 81046B   25361.51121333  .00012046  00000+0  30024-3 0  9997
2 12465  81.2326  16.2622 0018045 270.1082  89.8092 15.39918471427310
SL-3 R/B                
1 12904U 81103B   25361.46870624  .00006637  00000+0  30278-3 0  9997
2 12904  81.1596 298.1026 0012961 161.2867 198.8843 15.20408125962259
SL-3 R/B                
1 13068U 82013B   25361.44398479  .00004972  00000+0  22002-3 0  9997
2 13068  81.1738 245.3975 0024076  63.9123 296.4582 15.21213873393369
SL-3 R/B                
1 13154U 82039B   25361.42079251  .00003453  00000+0  21129-3 0  9995
2 13154  81.1705 299.2064 0029430 202.3555 157.6390 15.09610777370734
