CCSDS_OMM_VERS = 2.0
CREATION_DATE  = 
ORIGINATOR     = 

OBJECT_NAME    = ATLAS CENTAUR R/B
OBJECT_ID      = 1972-065B
CENTER_NAME    = EARTH
REF_FRAME      = TEME
TIME_SYSTEM    = UTC
MEAN_ELEMENT_THEORY = SGP/SGP4

EPOCH          = 2025-12-27T07:46:57.080064
MEAN_MOTION    = 14.77447064
ECCENTRICITY   = .0033305
INCLINATION    = 35.0024
RA_OF_ASC_NODE = 9.7634
ARG_OF_PERICENTER = 122.1024
MEAN_ANOMALY   = 238.2916

EPHEMERIS_TYPE = 0
CLASSIFICATION_TYPE = U
NORAD_CAT_ID   = 6155
ELEMENT_SET_NO = 999
REV_AT_EPOCH   = 83055
BSTAR          = .19587E-3
MEAN_MOTION_DOT = .1407E-4
MEAN_MOTION_DDOT = 0

CCSDS_OMM_VERS = 2.0
CREATION_DATE  = 
ORIGINATOR     = 

OBJECT_NAME    = SL-8 R/B
OBJECT_ID      = 1975-112B
CENTER_NAME    = EARTH
REF_FRAME      = TEME
TIME_SYSTEM    = UTC
MEAN_ELEMENT_THEORY = SGP/SGP4

EPOCH          = 2025-12-27T12:11:40.983072
MEAN_MOTION    = 14.38155117
ECCENTRICITY   = .0016684
INCLINATION    = 74.0597
RA_OF_ASC_NODE = 151.6932
ARG_OF_PERICENTER = 261.5640
MEAN_ANOMALY   = 98.3623

EPHEMERIS_TYPE = 0
CLASSIFICATION_TYPE = U
NORAD_CAT_ID   = 8459
ELEMENT_SET_NO = 999
REV_AT_EPOCH   = 62149
BSTAR          = .11282E-3
MEAN_MOTION_DOT = .316E-5
MEAN_MOTION_DDOT = 0

CCSDS_OMM_VERS = 2.0
CREATION_DATE  = 
ORIGINATOR     = 

OBJECT_NAME    = SL-3 R/B
OBJECT_ID      = 1977-057B
CENTER_NAME    = EARTH
REF_FRAME      = TEME
TIME_SYSTEM    = UTC
MEAN_ELEMENT_THEORY = SGP/SGP4

EPOCH          = 2025-12-27T11:25:33.272256
MEAN_MOTION    = 15.43307186
ECCENTRICITY   = .0007477
INCLINATION    = 97.5693
RA_OF_ASC_NODE = 165.3820
ARG_OF_PERICENTER = 174.8043
MEAN_ANOMALY   = 185.3283

EPHEMERIS_TYPE = 0
CLASSIFICATION_TYPE = U
NORAD_CAT_ID   = 10114
ELEMENT_SET_NO = 999
REV_AT_EPOCH   = 65718
BSTAR          = .31414E-3
MEAN_MOTION_DOT = .13917E-3
MEAN_MOTION_DDOT = 0

CCSDS_OMM_VERS = 2.0
CREATION_DATE  = 
ORIGINATOR     = 

OBJECT_NAME    = SEASAT 1
OBJECT_ID      = 1978-064A
CENTER_NAME    = EARTH
REF_FRAME      = TEME
TIME_SYSTEM    = UTC
MEAN_ELEMENT_THEORY = SGP/SGP4

EPOCH          = 2025-12-27T11:39:56.583648
MEAN_MOTION    = 14.46077363
ECCENTRICITY   = .0001276
INCLINATION    = 108.0141
RA_OF_ASC_NODE = 333.9731
ARG_OF_PERICENTER = 257.3974
MEAN_ANOMALY   = 102.7029

EPHEMERIS_TYPE = 0
CLASSIFICATION_TYPE = U
NORAD_CAT_ID   = 10967
ELEMENT_SET_NO = 999
REV_AT_EPOCH   = 49607
BSTAR          = .168E-3
MEAN_MOTION_DOT = .463E-5
MEAN_MOTION_DDOT = 0

CCSDS_OMM_VERS = 2.0
CREATION_DATE  = 
ORIGINATOR     = 

OBJECT_NAME    = SL-14 R/B
OBJECT_ID      = 1979-011B
CENTER_NAME    = EARTH
REF_FRAME      = TEME
TIME_SYSTEM    = UTC
MEAN_ELEMENT_THEORY = SGP/SGP4

EPOCH          = 2025-12-27T11:27:46.062144
MEAN_MOTION    = 14.91788438
ECCENTRICITY   = .0014808
INCLINATION    = 82.5237
RA_OF_ASC_NODE = 165.0663
ARG_OF_PERICENTER = 301.7828
MEAN_ANOMALY   = 58.1948

EPHEMERIS_TYPE = 0
CLASSIFICATION_TYPE = U
NORAD_CAT_ID   = 11267
ELEMENT_SET_NO = 999
REV_AT_EPOCH   = 51801
BSTAR          = .74897E-4
MEAN_MOTION_DOT = .781E-5
MEAN_MOTION_DDOT = 0

CCSDS_OMM_VERS = 2.0
CREATION_DATE  = 
ORIGINATOR     = 

OBJECT_NAME    = SL-8 R/B
OBJECT_ID      = 1979-089B
CENTER_NAME    = EARTH
REF_FRAME      = TEME
TIME_SYSTEM    = UTC
MEAN_ELEMENT_THEORY = SGP/SGP4

EPOCH          = 2025-12-27T07:59:32.705088
MEAN_MOTION    = 14.42292700
ECCENTRICITY   = .0014787
INCLINATION    = 74.0672
RA_OF_ASC_NODE = 224.9701
ARG_OF_PERICENTER = 53.3553
MEAN_ANOMALY   = 306.8961

EPHEMERIS_TYPE = 0
CLASSIFICATION_TYPE = U
NORAD_CAT_ID   = 11574
ELEMENT_SET_NO = 999
REV_AT_EPOCH   = 42567
BSTAR          = .90324E-4
MEAN_MOTION_DOT = .272E-5
MEAN_MOTION_DDOT = 0

CCSDS_OMM_VERS = 2.0
CREATION_DATE  = 
ORIGINATOR     = 

OBJECT_NAME    = SL-14 R/B
OBJECT_ID      = 1980-005B
CENTER_NAME    = EARTH
REF_FRAME      = TEME
TIME_SYSTEM    = UTC
MEAN_ELEMENT_THEORY = SGP/SGP4

EPOCH          = 2025-12-27T12:14:57.931008
MEAN_MOTION    = 14.90809106
ECCENTRICITY   = .0016967
INCLINATION    = 82.5138
RA_OF_ASC_NODE = 15.6893
ARG_OF_PERICENTER = 48.3173
MEAN_ANOMALY   = 311.9494

EPHEMERIS_TYPE = 0
CLASSIFICATION_TYPE = U
NORAD_CAT_ID   = 11672
ELEMENT_SET_NO = 999
REV_AT_EPOCH   = 46573
BSTAR          = .68224E-4
MEAN_MOTION_DOT = .698E-5
MEAN_MOTION_DDOT = 0

CCSDS_OMM_VERS = 2.0
CREATION_DATE  = 
ORIGINATOR     = 

OBJECT_NAME    = SL-8 R/B
OBJECT_ID      = 1981-003B
CENTER_NAME    = EARTH
REF_FRAME      = TEME
TIME_SYSTEM    = UTC
MEAN_ELEMENT_THEORY = SGP/SGP4

EPOCH          = 2025-12-27T11:25:17.618304
MEAN_MOTION    = 15.07500536
ECCENTRICITY   = .027729
INCLINATION    = 82.9356
RA_OF_ASC_NODE = 356.6435
ARG_OF_PERICENTER = 69.6710
MEAN_ANOMALY   = 293.4080

EPHEMERIS_TYPE = 0
CLASSIFICATION_TYPE = U
NORAD_CAT_ID   = 12139
ELEMENT_SET_NO = 999
REV_AT_EPOCH   = 30378
BSTAR          = .56658E-3
MEAN_MOTION_DOT = .21423E-3
MEAN_MOTION_DDOT = 0

CCSDS_OMM_VERS = 2.0
CREATION_DATE  = 
ORIGINATOR     = 

OBJECT_NAME    = SL-3 R/B
OBJECT_ID      = 1981-046B
CENTER_NAME    = EARTH
REF_FRAME      = TEME
TIME_SYSTEM    = UTC
MEAN_ELEMENT_THEORY = SGP/SGP4

EPOCH          = 2025-12-27T12:16:08.831712
MEAN_MOTION    = 15.39918471
ECCENTRICITY   = .0018045
INCLINATION    = 81.2326
RA_OF_ASC_NODE = 16.2622
ARG_OF_PERICENTER = 270.1082
MEAN_ANOMALY   = 89.8092

EPHEMERIS_TYPE = 0
CLASSIFICATION_TYPE = U
NORAD_CAT_ID   = 12465
ELEMENT_SET_NO = 999
REV_AT_EPOCH   = 42731
BSTAR          = .30024E-3
MEAN_MOTION_DOT = .12046E-3
MEAN_MOTION_DDOT = 0

CCSDS_OMM_VERS = 2.0
CREATION_DATE  = 
ORIGINATOR     = 

OBJECT_NAME    = SL-3 R/B
OBJECT_ID      = 1981-103B
CENTER_NAME    = EARTH
REF_FRAME      = TEME
TIME_SYSTEM    = UTC
MEAN_ELEMENT_THEORY = SGP/SGP4

EPOCH          = 2025-12-27T11:14:56.219136
MEAN_MOTION    = 15.20408125
ECCENTRICITY   = .0012961
INCLINATION    = 81.1596
RA_OF_ASC_NODE = 298.1026
ARG_OF_PERICENTER = 161.2867
MEAN_ANOMALY   = 198.8843

EPHEMERIS_TYPE = 0
CLASSIFICATION_TYPE = U
NORAD_CAT_ID   = 12904
ELEMENT_SET_NO = 999
REV_AT_EPOCH   = 96225
BSTAR          = .30278E-3
MEAN_MOTION_DOT = .6637E-4
MEAN_MOTION_DDOT = 0

CCSDS_OMM_VERS = 2.0
CREATION_DATE  = 
ORIGINATOR     = 

OBJECT_NAME    = SL-3 R/B
OBJECT_ID      = 1982-013B
CENTER_NAME    = EARTH
REF_FRAME      = TEME
TIME_SYSTEM    = UTC
MEAN_ELEMENT_THEORY = SGP/SGP4

EPOCH          = 2025-12-27T10:39:20.285856
MEAN_MOTION    = 15.21213873
ECCENTRICITY   = .0024076
INCLINATION    = 81.1738
RA_OF_ASC_NODE = 245.3975
ARG_OF_PERICENTER = 63.9123
MEAN_ANOMALY   = 296.4582

EPHEMERIS_TYPE = 0
CLASSIFICATION_TYPE = U
NORAD_CAT_ID   = 13068
ELEMENT_SET_NO = 999
REV_AT_EPOCH   = 39336
BSTAR          = .22002E-3
MEAN_MOTION_DOT = .4972E-4
MEAN_MOTION_DDOT = 0

CCSDS_OMM_VERS = 2.0
CREATION_DATE  = 
ORIGINATOR     = 

OBJECT_NAME    = SL-3 R/B
OBJECT_ID      = 1982-039B
CENTER_NAME    = EARTH
REF_FRAME      = TEME
TIME_SYSTEM    = UTC
MEAN_ELEMENT_THEORY = SGP/SGP4

EPOCH          = 2025-12-27T10:05:56.472864
MEAN_MOTION    = 15.09610777
ECCENTRICITY   = .002943
INCLINATION    = 81.1705
RA_OF_ASC_NODE = 299.2064
ARG_OF_PERICENTER = 202.3555
MEAN_ANOMALY   = 157.6390

EPHEMERIS_TYPE = 0
CLASSIFICATION_TYPE = U
NORAD_CAT_ID   = 13154
ELEMENT_SET_NO = 999
REV_AT_EPOCH   = 37073
BSTAR          = .21129E-3
MEAN_MOTION_DOT = .3453E-4
MEAN_MOTION_DDOT = 0

